{"type":"FeatureCollection","crs":{"type":"name","properties":{"name":"EPSG:4326"}},"features":[{"type":"Feature","geometry":{"type":"Polygon","coordinates":[[[-86.8086105733778,33.459577883812],[-86.8087787047613,33.4596453860257],[-86.8087039254038,33.4597762458907],[-86.808535793122,33.4597087430295],[-86.8086105733778,33.459577883812]]]},"properties":{"OCC_CLS":"Residential","HEIGHT":null,"SQMETERS":260.0406}},{"type":"Feature","geometry":{"type":"Polygon","coordinates":[[[-86.8083427550489,33.4587147269421],[-86.8082161150517,33.4586530359887],[-86.8082897158196,33.4585468868258],[-86.8084163558167,33.4586085778548],[-86.8083427550489,33.4587147269421]]]},"properties":{"OCC_CLS":"Residential","HEIGHT":null,"SQMETERS":184.5759}},{"type":"Feature","geometry":{"type":"Polygon","coordinates":[[[-86.8087289937901,33.4587854217304],[-86.808613417444,33.4588408516983],[-86.8085340611701,33.4587246016875],[-86.8086496366179,33.4586691708958],[-86.8087289937901,33.4587854217304]]]},"properties":{"OCC_CLS":"Residential","HEIGHT":null,"SQMETERS":178.9156}},{"type":"Feature","geometry":{"type":"Polygon","coordinates":[[[-86.8045447525878,33.4607070779397],[-86.8045864990957,33.4608478931431],[-86.8043409589858,33.4608990328013],[-86.8042992133762,33.4607582191798],[-86.8045447525878,33.4607070779397]]]},"properties":{"OCC_CLS":"Residential","HEIGHT":null,"SQMETERS":392.4192}},{"type":"Feature","geometry":{"type":"Polygon","coordinates":[[[-86.8100618250755,33.4588151553586],[-86.810012842638,33.4587976167611],[-86.8099657628323,33.4588899922639],[-86.8099167830897,33.4588724529321],[-86.8098906259453,33.4589237728735],[-86.8098171554331,33.4588974650089],[-86.8099060841547,33.4587229776307],[-86.810004047233,33.4587580548523],[-86.8100354343691,33.4586964718505],[-86.8101089048812,33.4587227797761],[-86.8100618250755,33.4588151553586]]]},"properties":{"OCC_CLS":"Residential","HEIGHT":null,"SQMETERS":321.9861}},{"type":"Feature","geometry":{"type":"Polygon","coordinates":[[[-86.8059312088041,33.4592093007136],[-86.8060906804282,33.4592177626986],[-86.8060772191737,33.4593959880551],[-86.8059177466512,33.4593875253379],[-86.8059312088041,33.4592093007136]]]},"properties":{"OCC_CLS":"Residential","HEIGHT":null,"SQMETERS":281.1076}},{"type":"Feature","geometry":{"type":"Polygon","coordinates":[[[-86.8072128100671,33.4592937901236],[-86.8073847170697,33.4592767372631],[-86.8074003666203,33.4593875770496],[-86.8072284587193,33.4594046291389],[-86.8072128100671,33.4592937901236]]]},"properties":{"OCC_CLS":"Residential","HEIGHT":null,"SQMETERS":199.9825}},{"type":"Feature","geometry":{"type":"Polygon","coordinates":[[[-86.8092976309582,33.4603285861097],[-86.8093040323529,33.4602394571988],[-86.8094768268911,33.46024817614],[-86.8094704263947,33.4603373050418],[-86.8092976309582,33.4603285861097]]]},"properties":{"OCC_CLS":"Residential","HEIGHT":null,"SQMETERS":145.9005}},{"type":"Feature","geometry":{"type":"Polygon","coordinates":[[[-86.8053255763176,33.4606373027735],[-86.8055083762914,33.4606066352272],[-86.8055292836813,33.4606941892033],[-86.8053464837075,33.4607248567186],[-86.8053255763176,33.4606373027735]]]},"properties":{"OCC_CLS":"Residential","HEIGHT":null,"SQMETERS":180.1721}},{"type":"Feature","geometry":{"type":"Polygon","coordinates":[[[-86.8048756901418,33.4595031996374],[-86.8050497477113,33.4594472372389],[-86.8050926692156,33.4595410262472],[-86.8049186116461,33.4595969878357],[-86.8048756901418,33.4595031996374]]]},"properties":{"OCC_CLS":"Residential","HEIGHT":null,"SQMETERS":199.0384}},{"type":"Feature","geometry":{"type":"Polygon","coordinates":[[[-86.8092286089034,33.4597023990124],[-86.8091957072078,33.4598334641378],[-86.8090393392629,33.4598058847496],[-86.8090722409585,33.4596748203318],[-86.8092286089034,33.4597023990124]]]},"properties":{"OCC_CLS":"Residential","HEIGHT":null,"SQMETERS":224.5086}},{"type":"Feature","geometry":{"type":"Polygon","coordinates":[[[-86.8062502302058,33.4594162859821],[-86.8063833308865,33.459419575289],[-86.8063805838384,33.4594976709989],[-86.806473755303,33.4594999732868],[-86.8064710082549,33.4595780681748],[-86.8062447352113,33.4595724758385],[-86.8062502302058,33.4594162859821]]]},"properties":{"OCC_CLS":"Residential","HEIGHT":null,"SQMETERS":301.5454}},{"type":"Feature","geometry":{"type":"Polygon","coordinates":[[[-86.8067428797824,33.4590888468036],[-86.8067365439647,33.4589997143699],[-86.8068428829347,33.4589944052873],[-86.8068492169558,33.4590835369771],[-86.8067428797824,33.4590888468036]]]},"properties":{"OCC_CLS":"Residential","HEIGHT":null,"SQMETERS":92.44422}},{"type":"Feature","geometry":{"type":"Polygon","coordinates":[[[-86.8056101006158,33.4586515730623],[-86.805480373109,33.4585099141567],[-86.8055648749329,33.4584555452009],[-86.8056946042363,33.4585972041953],[-86.8056101006158,33.4586515730623]]]},"properties":{"OCC_CLS":"Residential","HEIGHT":null,"SQMETERS":187.72}},{"type":"Feature","geometry":{"type":"Polygon","coordinates":[[[-86.8079600880092,33.4586221376593],[-86.8081004623488,33.4585870768706],[-86.8081232777603,33.4586512552955],[-86.8079829043191,33.4586863168077],[-86.8079600880092,33.4586221376593]]]},"properties":{"OCC_CLS":"Residential","HEIGHT":null,"SQMETERS":94.96062}},{"type":"Feature","geometry":{"type":"Polygon","coordinates":[[[-86.8061472769861,33.4589737467774],[-86.8061641401606,33.4590844610442],[-86.8059131769213,33.4591113181961],[-86.8058963128485,33.4590006032141],[-86.8061472769861,33.4589737467774]]]},"properties":{"OCC_CLS":"Residential","HEIGHT":null,"SQMETERS":280.4787}},{"type":"Feature","geometry":{"type":"Polygon","coordinates":[[[-86.8092806339347,33.459739207795],[-86.8092597220533,33.4596516551028],[-86.8094033482941,33.4596275538151],[-86.8094242592773,33.459715107281],[-86.8092806339347,33.459739207795]]]},"properties":{"OCC_CLS":"Residential","HEIGHT":null,"SQMETERS":125.4603}},{"type":"Feature","geometry":{"type":"Polygon","coordinates":[[[-86.8041791041312,33.4582511499982],[-86.8043269264028,33.4581756470263],[-86.8043546412259,33.458213770999],[-86.8044228673734,33.4581789228901],[-86.8044575118007,33.4582265791632],[-86.8042414660765,33.4583369301502],[-86.8041791041312,33.4582511499982]]]},"properties":{"OCC_CLS":"Residential","HEIGHT":null,"SQMETERS":246.5191}},{"type":"Feature","geometry":{"type":"Polygon","coordinates":[[[-86.8094889047401,33.4581882221159],[-86.8097056071327,33.4582430768852],[-86.8096709609088,33.458339239214],[-86.8094542594146,33.4582843852549],[-86.8094889047401,33.4581882221159]]]},"properties":{"OCC_CLS":"Residential","HEIGHT":null,"SQMETERS":235.5138}},{"type":"Feature","geometry":{"type":"Polygon","coordinates":[[[-86.8047263048017,33.4608775503714],[-86.8047677270177,33.4606796689505],[-86.8049251163471,33.4607028151691],[-86.804883694131,33.4609006950382],[-86.8047263048017,33.4608775503714]]]},"properties":{"OCC_CLS":"Residential","HEIGHT":null,"SQMETERS":332.9914}},{"type":"Feature","geometry":{"type":"Polygon","coordinates":[[[-86.8050372458575,33.4594002111694],[-86.8049594589404,33.4592460100294],[-86.8050330471318,33.4592199300938],[-86.8051108331506,33.4593741320298],[-86.8050372458575,33.4594002111694]]]},"properties":{"OCC_CLS":"Residential","HEIGHT":null,"SQMETERS":151.5595}},{"type":"Feature","geometry":{"type":"Polygon","coordinates":[[[-86.8092775733746,33.4578088236879],[-86.8092454675863,33.4577120439668],[-86.8091428368617,33.4577359636688],[-86.8091214327035,33.4576714450617],[-86.8093266959492,33.4576236033672],[-86.8093802040991,33.4577849032566],[-86.8092775733746,33.4578088236879]]]},"properties":{"OCC_CLS":"Residential","HEIGHT":null,"SQMETERS":253.4379}},{"type":"Feature","geometry":{"type":"Polygon","coordinates":[[[-86.8070644119754,33.4587248729882],[-86.8069991996757,33.458614936941],[-86.8070945872841,33.4585751838389],[-86.8071597986855,33.4586851199365],[-86.8070644119754,33.4587248729882]]]},"properties":{"OCC_CLS":"Residential","HEIGHT":null,"SQMETERS":126.0904}},{"type":"Feature","geometry":{"type":"Polygon","coordinates":[[[-86.8051077680988,33.4607272698899],[-86.805089314008,33.4606280173002],[-86.8051682579551,33.4606177051028],[-86.805186712046,33.460716959203],[-86.8051077680988,33.4607272698899]]]},"properties":{"OCC_CLS":"Residential","HEIGHT":null,"SQMETERS":94.64657}},{"type":"Feature","geometry":{"type":"Polygon","coordinates":[[[-86.8045061897093,33.4591379160313],[-86.8045717757082,33.4591283096346],[-86.8045901130181,33.4592162668062],[-86.8045245270192,33.4592258731931],[-86.8045061897093,33.4591379160313]]]},"properties":{"OCC_CLS":"Residential","HEIGHT":null,"SQMETERS":61.00064}},{"type":"Feature","geometry":{"type":"Polygon","coordinates":[[[-86.808627221855,33.4577766742129],[-86.8087353035567,33.4578200670453],[-86.8086605250975,33.4579509266675],[-86.8085524415991,33.4579075331512],[-86.808627221855,33.4577766742129]]]},"properties":{"OCC_CLS":"Residential","HEIGHT":null,"SQMETERS":174.8283}},{"type":"Feature","geometry":{"type":"Polygon","coordinates":[[[-86.8080866112254,33.4575477303652],[-86.8079689507878,33.4576541558025],[-86.8078615167714,33.4575707057937],[-86.8079791763107,33.4574642802539],[-86.8080866112254,33.4575477303652]]]},"properties":{"OCC_CLS":"Residential","HEIGHT":null,"SQMETERS":217.9074}},{"type":"Feature","geometry":{"type":"Polygon","coordinates":[[[-86.8060596247705,33.4580142159596],[-86.8060830672062,33.4581354073269],[-86.8059384815646,33.4581550572711],[-86.8059150391289,33.4580338651818],[-86.8060596247705,33.4580142159596]]]},"properties":{"OCC_CLS":"Residential","HEIGHT":null,"SQMETERS":171.0541}},{"type":"Feature","geometry":{"type":"Polygon","coordinates":[[[-86.8063300670784,33.4600335103684],[-86.8063750097921,33.4598933893218],[-86.8064778857567,33.459916570974],[-86.8064329421447,33.4600566919831],[-86.8063300670784,33.4600335103684]]]},"properties":{"OCC_CLS":"Residential","HEIGHT":null,"SQMETERS":170.1119}},{"type":"Feature","geometry":{"type":"Polygon","coordinates":[[[-86.805476395369,33.4604054579231],[-86.8054847200567,33.4605168530959],[-86.8052986600967,33.4605266219658],[-86.805290335409,33.4604152268056],[-86.805476395369,33.4604054579231]]]},"properties":{"OCC_CLS":"Residential","HEIGHT":null,"SQMETERS":228.91}},{"type":"Feature","geometry":{"type":"Polygon","coordinates":[[[-86.8074802106794,33.4589662253248],[-86.8076608205605,33.4590049372658],[-86.8076344298541,33.4590914436347],[-86.8074538199729,33.459052730983],[-86.8074802106794,33.4589662253248]]]},"properties":{"OCC_CLS":"Residential","HEIGHT":null,"SQMETERS":181.117}},{"type":"Feature","geometry":{"type":"Polygon","coordinates":[[[-86.80924827033,33.4591323379061],[-86.8093725935721,33.4590481983303],[-86.8094813418237,33.4591610888921],[-86.8092844948938,33.4592943102381],[-86.8091422870928,33.4591466837972],[-86.809214808984,33.4590976018339],[-86.80924827033,33.4591323379061]]]},"properties":{"OCC_CLS":"Residential","HEIGHT":null,"SQMETERS":428.5816}},{"type":"Feature","geometry":{"type":"Polygon","coordinates":[[[-86.8087831460321,33.4593204088873],[-86.8086940583087,33.4591831480708],[-86.8088110288402,33.4591298107747],[-86.8089001156652,33.4592670716756],[-86.8087831460321,33.4593204088873]]]},"properties":{"OCC_CLS":"Residential","HEIGHT":null,"SQMETERS":203.1287}},{"type":"Feature","geometry":{"type":"Polygon","coordinates":[[[-86.8062516315777,33.4581049607342],[-86.8061331949957,33.4579842909456],[-86.8062360251462,33.4579133811595],[-86.8063544626266,33.4580340510468],[-86.8062516315777,33.4581049607342]]]},"properties":{"OCC_CLS":"Residential","HEIGHT":null,"SQMETERS":234.2574}},{"type":"Feature","geometry":{"type":"Polygon","coordinates":[[[-86.8098183070733,33.4597914790123],[-86.8097697109114,33.4597120210837],[-86.8098408089729,33.4596814708724],[-86.8098894060331,33.459760928829],[-86.8098183070733,33.4597914790123]]]},"properties":{"OCC_CLS":"Residential","HEIGHT":null,"SQMETERS":62.57293}},{"type":"Feature","geometry":{"type":"Polygon","coordinates":[[[-86.8081109232302,33.4593403643361],[-86.8080709428102,33.4592576009427],[-86.8082313971913,33.459203147019],[-86.8082713758147,33.4592859097149],[-86.8081109232302,33.4593403643361]]]},"properties":{"OCC_CLS":"Residential","HEIGHT":null,"SQMETERS":161.307}},{"type":"Feature","geometry":{"type":"Polygon","coordinates":[[[-86.8098023233495,33.4575865763432],[-86.8099351599255,33.457594307764],[-86.8099167130211,33.457816998018],[-86.8097838764451,33.4578092658677],[-86.8098023233495,33.4575865763432]]]},"properties":{"OCC_CLS":"Residential","HEIGHT":null,"SQMETERS":311.2943}},{"type":"Feature","geometry":{"type":"Polygon","coordinates":[[[-86.8074294612557,33.4582716520446],[-86.8074524617202,33.4583929030081],[-86.8072946546743,33.4584139348836],[-86.8072611996165,33.4582375691511],[-86.8074979101854,33.4582060216466],[-86.8075209097516,33.4583272727019],[-86.8074814593376,33.4583325308626],[-86.8074689125681,33.4582663938802],[-86.8074294612557,33.4582716520446]]]},"properties":{"OCC_CLS":"Residential","HEIGHT":null,"SQMETERS":357.2028}},{"type":"Feature","geometry":{"type":"Polygon","coordinates":[[[-86.8082405492274,33.4582576320209],[-86.8079271683473,33.4584467571299],[-86.8078649240813,33.4583742941073],[-86.8080162111549,33.4582829927709],[-86.8079773096115,33.4582377040527],[-86.8080637598812,33.4581855308265],[-86.8081026623229,33.4582308210708],[-86.8083728171699,33.4580677817764],[-86.8084895226983,33.4582036481262],[-86.8084571042963,33.4582232133667],[-86.8084104224443,33.4581688659652],[-86.8082915537726,33.4582406036886],[-86.8082370907136,33.4581771991457],[-86.8081938673754,33.4582032846411],[-86.8082405492274,33.4582576320209]]]},"properties":{"OCC_CLS":"Residential","HEIGHT":null,"SQMETERS":645.2283}},{"type":"Feature","geometry":{"type":"Polygon","coordinates":[[[-86.8060945674384,33.4608831733501],[-86.8062651835621,33.4608586332382],[-86.8062786960206,33.4609246363434],[-86.806108079897,33.4609491749378],[-86.8060945674384,33.4608831733501]]]},"properties":{"OCC_CLS":"Residential","HEIGHT":null,"SQMETERS":121.0599}},{"type":"Feature","geometry":{"type":"Polygon","coordinates":[[[-86.8071922970376,33.4590510679611],[-86.8072022854052,33.458962170815],[-86.8073878863261,33.4589768210098],[-86.8073778979584,33.4590657181409],[-86.8071922970376,33.4590510679611]]]},"properties":{"OCC_CLS":"Residential","HEIGHT":null,"SQMETERS":167.5965}},{"type":"Feature","geometry":{"type":"Polygon","coordinates":[[[-86.8063098010856,33.4611006338862],[-86.8062702231108,33.4611051799214],[-86.8062810711662,33.4611715283252],[-86.8061491409903,33.4611866817623],[-86.8061256383675,33.4610429278475],[-86.8062971447216,33.4610232290955],[-86.8063098010856,33.4611006338862]]]},"properties":{"OCC_CLS":"Residential","HEIGHT":null,"SQMETERS":245.2623}},{"type":"Feature","geometry":{"type":"Polygon","coordinates":[[[-86.8077108719932,33.4598580929738],[-86.8075120002606,33.4598736820648],[-86.807508280337,33.4598403439947],[-86.8077071520696,33.4598247541482],[-86.8077108719932,33.4598580929738]]]},"properties":{"OCC_CLS":"Residential","HEIGHT":null,"SQMETERS":70.43297}},{"type":"Feature","geometry":{"type":"Polygon","coordinates":[[[-86.8095743363203,33.4600659288041],[-86.8097046917494,33.4599246739087],[-86.8097889537231,33.4599793049962],[-86.8096585991922,33.4601205598025],[-86.8095743363203,33.4600659288041]]]},"properties":{"OCC_CLS":"Residential","HEIGHT":null,"SQMETERS":204.0703}},{"type":"Feature","geometry":{"type":"Polygon","coordinates":[[[-86.8053477674001,33.4577004663371],[-86.8054329806896,33.4578003240924],[-86.8053463408754,33.4578522719639],[-86.8052611248909,33.4577524142684],[-86.8053477674001,33.4577004663371]]]},"properties":{"OCC_CLS":"Residential","HEIGHT":null,"SQMETERS":131.4348}},{"type":"Feature","geometry":{"type":"Polygon","coordinates":[[[-86.8087106448021,33.4578068878397],[-86.8087497547547,33.4576199999688],[-86.8088153317704,33.4576296410077],[-86.8087762218179,33.4578165303568],[-86.8087106448021,33.4578068878397]]]},"properties":{"OCC_CLS":"Residential","HEIGHT":null,"SQMETERS":125.4607}},{"type":"Feature","geometry":{"type":"Polygon","coordinates":[[[-86.8060913505714,33.460432803297],[-86.8061242846064,33.4605752489635],[-86.806045847309,33.4605879893298],[-86.8060129141724,33.4604455429348],[-86.8060913505714,33.460432803297]]]},"properties":{"OCC_CLS":"Residential","HEIGHT":null,"SQMETERS":110.054}},{"type":"Feature","geometry":{"type":"Polygon","coordinates":[[[-86.8092863014059,33.4588007292216],[-86.8091051426541,33.4586869538399],[-86.8092169272114,33.4585619050712],[-86.8093980850649,33.458675679118],[-86.8092863014059,33.4588007292216]]]},"properties":{"OCC_CLS":"Residential","HEIGHT":null,"SQMETERS":382.6716}},{"type":"Feature","geometry":{"type":"Polygon","coordinates":[[[-86.8091674839382,33.4603154522516],[-86.8091991333823,33.4601388528156],[-86.8092913113102,33.4601504578489],[-86.8092596627644,33.4603270580107],[-86.8091674839382,33.4603154522516]]]},"properties":{"OCC_CLS":"Residential","HEIGHT":null,"SQMETERS":166.0239}},{"type":"Feature","geometry":{"type":"Polygon","coordinates":[[[-86.8051631456429,33.4602012366901],[-86.8051339818372,33.4601153587076],[-86.8051852109612,33.4601031361331],[-86.8052143747669,33.4601890148771],[-86.8051631456429,33.4602012366901]]]},"properties":{"OCC_CLS":"Residential","HEIGHT":null,"SQMETERS":53.13963}},{"type":"Feature","geometry":{"type":"Polygon","coordinates":[[[-86.8072840087399,33.4602483530069],[-86.807335164202,33.4600980939178],[-86.8074632136559,33.4601287196754],[-86.8074120572954,33.4602789802104],[-86.8072840087399,33.4602483530069]]]},"properties":{"OCC_CLS":"Residential","HEIGHT":null,"SQMETERS":201.5548}},{"type":"Feature","geometry":{"type":"Polygon","coordinates":[[[-86.8049653429055,33.4606583153687],[-86.805084997603,33.4606526511565],[-86.8050895026542,33.4607195117689],[-86.804969848855,33.4607251759766],[-86.8049653429055,33.4606583153687]]]},"properties":{"OCC_CLS":"Residential","HEIGHT":null,"SQMETERS":77.66683}},{"type":"Feature","geometry":{"type":"Polygon","coordinates":[[[-86.8048993975805,33.4590680481697],[-86.8050198778298,33.459020516018],[-86.8050879270092,33.459141699983],[-86.8049674458616,33.4591892313189],[-86.8048993975805,33.4590680481697]]]},"properties":{"OCC_CLS":"Residential","HEIGHT":null,"SQMETERS":170.4259}},{"type":"Feature","geometry":{"type":"Polygon","coordinates":[[[-86.8043652584142,33.4591492873715],[-86.8042879772486,33.4591929703017],[-86.8041316335583,33.4589986396629],[-86.8042861958894,33.4589112758332],[-86.8043829803782,33.4590315748543],[-86.8043056992126,33.4590752570943],[-86.8043652584142,33.4591492873715]]]},"properties":{"OCC_CLS":"Residential","HEIGHT":null,"SQMETERS":370.4102}},{"type":"Feature","geometry":{"type":"Polygon","coordinates":[[[-86.8055656411958,33.4608699189177],[-86.8054598888256,33.4608806829919],[-86.8054422306421,33.4607588037366],[-86.8055479830122,33.4607480396472],[-86.8055656411958,33.4608699189177]]]},"properties":{"OCC_CLS":"Residential","HEIGHT":null,"SQMETERS":142.1254}},{"type":"Feature","geometry":{"type":"Polygon","coordinates":[[[-86.8043729569762,33.4588932673513],[-86.8045407622713,33.4587832310914],[-86.80465562805,33.4589063017483],[-86.8044878236533,33.4590163378519],[-86.8043729569762,33.4588932673513]]]},"properties":{"OCC_CLS":"Residential","HEIGHT":null,"SQMETERS":342.4243}},{"type":"Feature","geometry":{"type":"Polygon","coordinates":[[[-86.8084956303439,33.4596621480305],[-86.8084982776791,33.4597960648365],[-86.8083651356759,33.4597979129557],[-86.8083624901374,33.4596639969021],[-86.8084956303439,33.4596621480305]]]},"properties":{"OCC_CLS":"Residential","HEIGHT":null,"SQMETERS":177.3437}},{"type":"Feature","geometry":{"type":"Polygon","coordinates":[[[-86.8047753860538,33.4581187806781],[-86.8047182891344,33.458043401251],[-86.8048756667856,33.4579596473377],[-86.8049327664,33.4580350260882],[-86.8047753860538,33.4581187806781]]]},"properties":{"OCC_CLS":"Residential","HEIGHT":null,"SQMETERS":194.9526}},{"type":"Feature","geometry":{"type":"Polygon","coordinates":[[[-86.8078999071734,33.4593412928973],[-86.8077848455619,33.4593693888001],[-86.8077476041052,33.4592622302629],[-86.80796493981,33.4592091620662],[-86.8079761121572,33.4592413087616],[-86.8078738371655,33.4592662832598],[-86.8078999071734,33.4593412928973]]]},"properties":{"OCC_CLS":"Residential","HEIGHT":null,"SQMETERS":196.212}},{"type":"Feature","geometry":{"type":"Polygon","coordinates":[[[-86.8061419257219,33.4596052189548],[-86.8059610041254,33.4596429038757],[-86.8059353132066,33.459556248918],[-86.8061162339048,33.4595185647089],[-86.8061419257219,33.4596052189548]]]},"properties":{"OCC_CLS":"Residential","HEIGHT":null,"SQMETERS":153.7616}},{"type":"Feature","geometry":{"type":"Polygon","coordinates":[[[-86.8088371132211,33.4590453316971],[-86.8087225807173,33.4590749041051],[-86.8086755404375,33.4589469038225],[-86.8087900720429,33.4589173321202],[-86.8088371132211,33.4590453316971]]]},"properties":{"OCC_CLS":"Residential","HEIGHT":null,"SQMETERS":184.576}},{"type":"Feature","geometry":{"type":"Polygon","coordinates":[[[-86.8065310902761,33.4590663281903],[-86.8065329219409,33.4589770503406],[-86.8066660621475,33.4589789711737],[-86.806664228686,33.459068248272],[-86.8065310902761,33.4590663281903]]]},"properties":{"OCC_CLS":"Residential","HEIGHT":null,"SQMETERS":132.064}},{"type":"Feature","geometry":{"type":"Polygon","coordinates":[[[-86.8068115748505,33.4585507592386],[-86.8068910748548,33.4585441153564],[-86.8069016453307,33.4586329649663],[-86.8068221444281,33.4586396088417],[-86.8068115748505,33.4585507592386]]]},"properties":{"OCC_CLS":"Residential","HEIGHT":null,"SQMETERS":81.44003}},{"type":"Feature","geometry":{"type":"Polygon","coordinates":[[[-86.8094414494386,33.4585340727134],[-86.8096272506837,33.4585468096324],[-86.8096163963402,33.4586580520573],[-86.809430595095,33.4586453151546],[-86.8094414494386,33.4585340727134]]]},"properties":{"OCC_CLS":"Residential","HEIGHT":null,"SQMETERS":205.6431}},{"type":"Feature","geometry":{"type":"Polygon","coordinates":[[[-86.8060136507909,33.4586802552583],[-86.8060061094341,33.4585464678828],[-86.806139119385,33.4585411999922],[-86.8061466607418,33.458674985877],[-86.8060136507909,33.4586802552583]]]},"properties":{"OCC_CLS":"Residential","HEIGHT":null,"SQMETERS":157.534}},{"type":"Feature","geometry":{"type":"Polygon","coordinates":[[[-86.8075210615669,33.4586910503318],[-86.8074216270481,33.4586590173488],[-86.8074741757973,33.4585444158862],[-86.8075736121127,33.4585764489116],[-86.8075210615669,33.4586910503318]]]},"properties":{"OCC_CLS":"Residential","HEIGHT":null,"SQMETERS":132.0642}},{"type":"Feature","geometry":{"type":"Polygon","coordinates":[[[-86.8077867949061,33.4587054120344],[-86.8077851303278,33.458571483801],[-86.807931595245,33.4585702029897],[-86.8079332607216,33.4587041319746],[-86.8077867949061,33.4587054120344]]]},"properties":{"OCC_CLS":"Residential","HEIGHT":null,"SQMETERS":192.1214}},{"type":"Feature","geometry":{"type":"Polygon","coordinates":[[[-86.8074989369598,33.4609220223304],[-86.8074967621385,33.4610001301765],[-86.8073902605733,33.460998046762],[-86.8073924371913,33.4609199389139],[-86.8074989369598,33.4609220223304]]]},"properties":{"OCC_CLS":"Residential","HEIGHT":null,"SQMETERS":82.38214}},{"type":"Feature","geometry":{"type":"Polygon","coordinates":[[[-86.807212331265,33.4597869261633],[-86.8071939355646,33.4599199711789],[-86.8070881167191,33.4599096933714],[-86.8071065106228,33.4597766483401],[-86.807212331265,33.4597869261633]]]},"properties":{"OCC_CLS":"Residential","HEIGHT":null,"SQMETERS":143.3838}},{"type":"Feature","geometry":{"type":"Polygon","coordinates":[[[-86.8093610556106,33.4580646842787],[-86.8092563830153,33.4579091407352],[-86.8093491664078,33.4578652727919],[-86.8094538381047,33.4580208149151],[-86.8093610556106,33.4580646842787]]]},"properties":{"OCC_CLS":"Residential","HEIGHT":null,"SQMETERS":192.4363}},{"type":"Feature","geometry":{"type":"Polygon","coordinates":[[[-86.8048597306725,33.4596211393445],[-86.8050930366265,33.4595750846462],[-86.8051357712812,33.4597271830198],[-86.8049024662255,33.4597732361385],[-86.8048597306725,33.4596211393445]]]},"properties":{"OCC_CLS":"Residential","HEIGHT":null,"SQMETERS":387.3883}},{"type":"Feature","geometry":{"type":"Polygon","coordinates":[[[-86.8086145852538,33.4580256938699],[-86.8084821089023,33.4581005816702],[-86.8083927651591,33.4579895386347],[-86.8085252424089,33.4579146507386],[-86.8086145852538,33.4580256938699]]]},"properties":{"OCC_CLS":"Residential","HEIGHT":null,"SQMETERS":220.108}},{"type":"Feature","geometry":{"type":"Polygon","coordinates":[[[-86.8079525152114,33.4597721059825],[-86.8079598957697,33.4596830312087],[-86.8080130320171,33.459686124152],[-86.8080056496621,33.459775199672],[-86.8079525152114,33.4597721059825]]]},"properties":{"OCC_CLS":"Residential","HEIGHT":null,"SQMETERS":44.96468}},{"type":"Feature","geometry":{"type":"Polygon","coordinates":[[[-86.8057610912454,33.4575749237508],[-86.8058968536343,33.4574521270055],[-86.8059945202686,33.457527993346],[-86.8058587569814,33.4576507907333],[-86.8057610912454,33.4575749237508]]]},"properties":{"OCC_CLS":"Residential","HEIGHT":null,"SQMETERS":247.1488}},{"type":"Feature","geometry":{"type":"Polygon","coordinates":[[[-86.8054645708449,33.4582080556643],[-86.8056107860304,33.4582007567331],[-86.8056218694444,33.4583567389326],[-86.8054756542588,33.4583640378506],[-86.8054645708449,33.4582080556643]]]},"properties":{"OCC_CLS":"Residential","HEIGHT":null,"SQMETERS":227.9683}},{"type":"Feature","geometry":{"type":"Polygon","coordinates":[[[-86.8098202519259,33.4583936959286],[-86.8098188766052,33.4582374432429],[-86.810005292298,33.4582362898338],[-86.8100066676187,33.4583925440205],[-86.8098202519259,33.4583936959286]]]},"properties":{"OCC_CLS":"Residential","HEIGHT":null,"SQMETERS":300.6031}},{"type":"Feature","geometry":{"type":"Polygon","coordinates":[[[-86.8092837412073,33.4588266249189],[-86.8092996764221,33.4590047056867],[-86.809140333257,33.4590147227939],[-86.8091243980422,33.4588366427962],[-86.8092837412073,33.4588266249189]]]},"properties":{"OCC_CLS":"Residential","HEIGHT":null,"SQMETERS":310.0363}},{"type":"Feature","geometry":{"type":"Polygon","coordinates":[[[-86.8055680756302,33.4609128440561],[-86.8055933865617,33.4610676552645],[-86.8054878443972,33.4610797772795],[-86.8054625325675,33.4609249660928],[-86.8055680756302,33.4609128440561]]]},"properties":{"OCC_CLS":"Residential","HEIGHT":null,"SQMETERS":186.147}},{"type":"Feature","geometry":{"type":"Polygon","coordinates":[[[-86.8064124605563,33.4577942692262],[-86.8065897960782,33.457912196269],[-86.806507036986,33.4579996338027],[-86.8063297005658,33.4578817061294],[-86.8064124605563,33.4577942692262]]]},"properties":{"OCC_CLS":"Residential","HEIGHT":null,"SQMETERS":231.4272}},{"type":"Feature","geometry":{"type":"Polygon","coordinates":[[[-86.8079306592005,33.4590524162154],[-86.8077717571082,33.4590665230463],[-86.8077605371503,33.4589777300892],[-86.8079194383443,33.458963621745],[-86.8079306592005,33.4590524162154]]]},"properties":{"OCC_CLS":"Residential","HEIGHT":null,"SQMETERS":140.2402}},{"type":"Feature","geometry":{"type":"Polygon","coordinates":[[[-86.807500202686,33.4593946383072],[-86.8075008575579,33.4592830273513],[-86.8076739620148,33.4592837408225],[-86.8076733080413,33.4593953517775],[-86.807500202686,33.4593946383072]]]},"properties":{"OCC_CLS":"Residential","HEIGHT":null,"SQMETERS":210.9882}},{"type":"Feature","geometry":{"type":"Polygon","coordinates":[[[-86.808284183994,33.4611791410167],[-86.8081534683404,33.4611237380244],[-86.8082015398862,33.4610440557386],[-86.8083322564381,33.4610994587818],[-86.808284183994,33.4611791410167]]]},"properties":{"OCC_CLS":"Residential","HEIGHT":null,"SQMETERS":143.6978}},{"type":"Feature","geometry":{"type":"Polygon","coordinates":[[[-86.8080395826236,33.4610223462675],[-86.8081050042308,33.4611195607091],[-86.8079658237523,33.4611853612701],[-86.8079004030434,33.4610881476517],[-86.8080395826236,33.4610223462675]]]},"properties":{"OCC_CLS":"Residential","HEIGHT":null,"SQMETERS":177.9723}},{"type":"Feature","geometry":{"type":"Polygon","coordinates":[[[-86.8058319027443,33.4581139819202],[-86.8058715768388,33.458196848331],[-86.805698566705,33.4582550441583],[-86.8056588944071,33.4581721770537],[-86.8058319027443,33.4581139819202]]]},"properties":{"OCC_CLS":"Residential","HEIGHT":null,"SQMETERS":164.1381}},{"type":"Feature","geometry":{"type":"Polygon","coordinates":[[[-86.8075447663106,33.4579544970761],[-86.8074966947648,33.4580341792036],[-86.8074016323465,33.4579938847283],[-86.8074436950614,33.4579241628383],[-86.8074674608905,33.4579342370291],[-86.8075996560694,33.4577151122483],[-86.8076709526586,33.4577453326417],[-86.8076168731802,33.4578349737474],[-86.8076762868547,33.4578601577491],[-86.8076041808835,33.4579796810431],[-86.8075447663106,33.4579544970761]]]},"properties":{"OCC_CLS":"Residential","HEIGHT":null,"SQMETERS":397.4498}},{"type":"Feature","geometry":{"type":"Polygon","coordinates":[[[-86.8061662377268,33.4600065808068],[-86.8061901230319,33.4601277109329],[-86.806124434625,33.4601368113488],[-86.8060810055726,33.4599165739717],[-86.8062386581083,33.459894732317],[-86.8062582018557,33.459993840355],[-86.8061662377268,33.4600065808068]]]},"properties":{"OCC_CLS":"Residential","HEIGHT":null,"SQMETERS":261.6131}},{"type":"Feature","geometry":{"type":"Polygon","coordinates":[[[-86.8060664771195,33.4607899793436],[-86.8060441638662,33.4607373999623],[-86.8061570776058,33.4607037347224],[-86.8061793917575,33.4607563141241],[-86.8060664771195,33.4607899793436]]]},"properties":{"OCC_CLS":"Residential","HEIGHT":null,"SQMETERS":76.40907}},{"type":"Feature","geometry":{"type":"Polygon","coordinates":[[[-86.8059663041856,33.460138711172],[-86.8058485494249,33.4600656927312],[-86.8059435830971,33.4599580186913],[-86.8060613378578,33.4600310379722],[-86.8059663041856,33.460138711172]]]},"properties":{"OCC_CLS":"Residential","HEIGHT":null,"SQMETERS":193.6942}},{"type":"Feature","geometry":{"type":"Polygon","coordinates":[[[-86.8079884586025,33.4601531663143],[-86.8079255666512,33.460095500864],[-86.8080041907981,33.4600352543107],[-86.8080670836477,33.4600929190517],[-86.8079884586025,33.4601531663143]]]},"properties":{"OCC_CLS":"Commercial","HEIGHT":null,"SQMETERS":90.24509}},{"type":"Feature","geometry":{"type":"Polygon","coordinates":[[[-86.8067291346602,33.4577820118495],[-86.8066095392515,33.4577111311269],[-86.8067556008251,33.4575379791466],[-86.8068751980305,33.4576088592613],[-86.8067291346602,33.4577820118495]]]},"properties":{"OCC_CLS":"Residential","HEIGHT":null,"SQMETERS":310.98}},{"type":"Feature","geometry":{"type":"Polygon","coordinates":[[[-86.8072685002248,33.4577706703083],[-86.8072830169998,33.4576597220315],[-86.8075080333003,33.4576804070856],[-86.807493518322,33.4577913538369],[-86.8072685002248,33.4577706703083]]]},"properties":{"OCC_CLS":"Residential","HEIGHT":null,"SQMETERS":252.4959}},{"type":"Feature","geometry":{"type":"Polygon","coordinates":[[[-86.807374400817,33.4586893813074],[-86.8072580959372,33.4587136080141],[-86.8072131352572,33.4585619627789],[-86.807329440137,33.4585377360299],[-86.807374400817,33.4586893813074]]]},"properties":{"OCC_CLS":"Residential","HEIGHT":null,"SQMETERS":172.6273}},{"type":"Feature","geometry":{"type":"Polygon","coordinates":[[[-86.8097523716298,33.4587424812991],[-86.8096697284203,33.4586411159859],[-86.809812647687,33.4585592490176],[-86.8098952917949,33.458660615176],[-86.8097523716298,33.4587424812991]]]},"properties":{"OCC_CLS":"Residential","HEIGHT":null,"SQMETERS":228.9127}},{"type":"Feature","geometry":{"type":"Polygon","coordinates":[[[-86.805958769117,33.4603416457717],[-86.8059509582656,33.460219047049],[-86.806150413903,33.4602101190122],[-86.8061582256527,33.460332716998],[-86.805958769117,33.4603416457717]]]},"properties":{"OCC_CLS":"Residential","HEIGHT":null,"SQMETERS":262.5559}},{"type":"Feature","geometry":{"type":"Polygon","coordinates":[[[-86.8043628087084,33.4601991719922],[-86.8043599421844,33.460020608042],[-86.8045862933815,33.4600180539567],[-86.8045891608039,33.4601966179122],[-86.8043628087084,33.4601991719922]]]},"properties":{"OCC_CLS":"Residential","HEIGHT":null,"SQMETERS":437.6964}}]}